ONEWEB-0258             
1 48976U 21060K   25242.87196362  .00000094  00000+0  21179-3 0  9995
2 48976  87.8996 286.6614 0001857  97.1544 262.9798 13.16594865201393
ONEWEB-0259             
1 48977U 21060L   25242.94162736  .00000037  00000+0  62060-4 0  9994
2 48977  87.9002 286.6329 0001748  93.9841 266.1490 13.16593577201438
ONEWEB-0260             
1 48978U 21060M   25242.62892950 -.00000015  00000+0 -73248-4 0  9996
2 48978  87.8994 286.7193 0002295  84.9648 275.1745 13.16594078201374
ONEWEB-0261             
1 48979U 21060N   25242.82683610 -.00000018  00000+0 -80038-4 0  9998
2 48979  87.8996 286.6812 0001732  80.1933 279.9393 13.16592971201454
ONEWEB-0262             
1 48980U 21060P   25242.88304871  .00000113  00000+0  26295-3 0  9993
2 48980  87.9001 286.6334 0001583  97.4274 262.7037 13.16595624201426
ONEWEB-0263             
1 48981U 21060Q   25242.83871478 -.00000037  00000+0 -13130-3 0  9992
2 48981  87.8999 286.6650 0001567  84.4787 275.6522 13.16593660201385
ONEWEB-0264             
1 48982U 21060R   25242.64791898  .00000100  00000+0  22755-3 0  9991
2 48982  87.8995 286.7081 0001924  85.2238 274.9113 13.16596271201365
ONEWEB-0266             
1 48984U 21060T   25242.82130084  .00000089  00000+0  19860-3 0  9996
2 48984  87.9000 286.6493 0001821  97.8535 262.2803 13.16594474201376
